OBJECT_NAME,OBJECT_ID,EPOCH,MEAN_MOTION,ECCENTRICITY,INCLINATION,RA_OF_ASC_NODE,ARG_OF_PERICENTER,MEAN_ANOMALY,EPHEMERIS_TYPE,CLASSIFICATION_TYPE,NORAD_CAT_ID,ELEMENT_SET_NO,REV_AT_EPOCH,BSTAR,MEAN_MOTION_DOT,MEAN_MOTION_DDOT
ONEWEB-0211,2021-045A,2026-06-17T19:10:43.302720,13.16185903,.00018963,87.9015,258.9601,112.4227,247.7105,0,U,48767,999,24452,-.32336579E-2,-.1216E-4,0
ONEWEB-0223,2021-045B,2026-06-17T19:14:29.809824,13.15549183,.00017124,87.9012,259.0676,111.6499,248.4814,0,U,48768,999,24448,-.5362995E-5,.11E-6,0
ONEWEB-0230,2021-045C,2026-06-17T18:33:25.092576,13.15548880,.00020233,87.9001,259.0869,95.7299,264.4062,0,U,48769,999,24474,.72176132E-3,.285E-5,0
ONEWEB-0237,2021-045D,2026-06-17T18:17:25.861632,13.15546925,.00017675,87.8999,259.0909,103.4485,256.6842,0,U,48770,999,24446,.17533546E-3,.79E-6,0
ONEWEB-0235,2021-045E,2026-06-17T19:30:27.666144,13.15548818,.00016718,87.9012,259.0665,108.9208,251.2104,0,U,48771,999,24446,-.2496449E-3,-.81E-6,0
ONEWEB-0242,2021-045F,2026-06-17T19:21:18.919008,13.15547334,.00017755,87.9014,259.0644,99.1559,260.9773,0,U,48772,999,24450,-.2935827E-3,-.98E-6,0
ONEWEB-0241,2021-045G,2026-06-17T19:03:05.037120,13.15549338,.00018569,87.9000,259.0854,113.2031,246.9295,0,U,48773,999,24441,.20238484E-3,.89E-6,0
ONEWEB-0243,2021-045H,2026-06-17T17:59:11.155488,13.15548641,.00014857,87.9004,259.1066,95.8061,264.3239,0,U,48774,999,24443,-.29245795E-3,-.97E-6,0
ONEWEB-0222,2021-045J,2026-06-17T19:24:44.886240,13.15549169,.00018603,87.9011,259.0625,106.6759,253.4576,0,U,48775,999,24448,-.28089129E-3,-.93E-6,0
ONEWEB-0244,2021-045K,2026-06-17T18:12:52.864416,13.15548411,.00018422,87.9014,259.0669,102.1381,257.9955,0,U,48776,999,24504,-.61195119E-4,-.1E-6,0
ONEWEB-0247,2021-045L,2026-06-17T18:08:18.549600,13.15547327,.00011722,87.8997,259.0998,108.8700,251.2558,0,U,48777,999,24448,.49883402E-4,.32E-6,0
ONEWEB-0245,2021-045M,2026-06-17T18:01:27.742656,13.15547936,.00019709,87.9011,259.0799,106.3858,253.7489,0,U,48778,999,24445,-.19032239E-3,-.59E-6,0
ONEWEB-0229,2021-045N,2026-06-17T17:54:37.360800,13.15548384,.00018599,87.9009,259.0788,99.4066,260.7275,0,U,48779,999,24448,-.28222695E-3,-.93E-6,0
ONEWEB-0228,2021-045P,2026-06-17T18:42:43.557120,13.15546877,.00019031,87.9017,259.0648,102.1667,257.9676,0,U,48780,999,24440,.37223985E-3,.153E-5,0
ONEWEB-0232,2021-045Q,2026-06-17T18:06:00.561888,13.15550195,.00020121,87.9012,259.0709,103.1882,256.9473,0,U,48781,999,24472,-.18716932E-3,-.58E-6,0
ONEWEB-0231,2021-045R,2026-06-17T19:23:36.256992,13.15548615,.000181,87.9009,259.0732,105.9904,254.1426,0,U,48782,999,24442,-.20637733E-3,-.65E-6,0
ONEWEB-0234,2021-045S,2026-06-17T18:28:39.066240,13.15549047,.0002734,87.9009,259.0623,108.8689,251.2738,0,U,48783,999,24455,.31142334E-3,.13E-5,0
ONEWEB-0238,2021-045T,2026-06-17T18:29:02.305248,13.15547368,.0002362,87.9015,259.0569,106.6990,253.4400,0,U,48784,999,24445,.34207105E-3,.142E-5,0
ONEWEB-0240,2021-045U,2026-06-17T18:59:38.940288,13.15547599,.00019408,87.9015,259.0626,111.0101,249.1237,0,U,48785,999,24448,.79718362E-4,.43E-6,0
ONEWEB-0246,2021-045V,2026-06-17T18:51:40.209120,13.15549058,.00018592,87.9013,259.0683,98.7080,261.4261,0,U,48786,999,24435,.38177325E-3,.157E-5,0
ONEWEB-0210,2021-045W,2026-06-17T18:15:07.833312,13.15550107,.00011248,87.9015,259.0704,93.1127,267.0132,0,U,48787,999,24439,-.51420204E-3,-.181E-5,0
ONEWEB-0214,2021-045X,2026-06-17T18:27:42.260832,13.15548790,.00018081,87.9013,259.0655,91.4602,268.6735,0,U,48788,999,24436,.38644865E-3,.158E-5,0
ONEWEB-0221,2021-045Y,2026-06-17T18:37:58.907136,13.15547972,.00018212,87.9016,259.0729,104.5356,255.5976,0,U,48789,999,24445,.38011493E-3,.156E-5,0
ONEWEB-0213,2021-045Z,2026-06-17T18:21:59.598432,13.15547289,.00016823,87.9011,259.0782,103.4695,256.6623,0,U,48790,999,24451,.28788989E-3,.121E-5,0
ONEWEB-0212,2021-045AA,2026-06-17T17:48:54.520416,13.15550442,.0002043,87.9012,259.0772,101.4930,258.6430,0,U,48791,999,24450,-.33001676E-3,-.111E-5,0
ONEWEB-0227,2021-045AB,2026-06-17T17:47:46.857984,13.15548889,.00019622,87.9011,259.0780,103.0473,257.0877,0,U,48792,999,24445,-.40109541E-3,-.138E-5,0
ONEWEB-0226,2021-045AC,2026-06-17T17:38:37.728960,13.15550841,.0001704,87.9007,259.0838,100.0151,260.1172,0,U,48793,999,24442,-.14785103E-3,-.43E-6,0
ONEWEB-0224,2021-045AD,2026-06-17T18:35:41.136288,13.15546584,.00024281,87.9003,259.1101,121.2163,238.9206,0,U,48794,999,24435,.28741705E-3,.121E-5,0
ONEWEB-0233,2021-045AE,2026-06-17T18:42:20.608416,13.15548312,.00018063,87.9001,259.1166,108.4685,251.6642,0,U,48795,999,24437,.41589084E-3,.169E-5,0
ONEWEB-0190,2021-045AF,2026-06-17T18:24:16.379136,13.15547308,.00013783,87.9004,259.0810,114.0122,246.1153,0,U,48796,999,24444,.21533529E-3,.94E-6,0
