[
  {
    "name": "ONEWEB-0211",
    "noradId": "48767",
    "line1": "1 48767U 21045A   26168.79911230 -.00001216  00000+0 -32337-2 0  9990",
    "line2": "2 48767  87.9015 258.9601 0001896 112.4227 247.7105 13.16185903244528"
  },
  {
    "name": "ONEWEB-0223",
    "noradId": "48768",
    "line1": "1 48768U 21045B   26168.80173391  .00000011  00000+0 -53630-5 0  9994",
    "line2": "2 48768  87.9012 259.0676 0001712 111.6499 248.4814 13.15549183244482"
  },
  {
    "name": "ONEWEB-0230",
    "noradId": "48769",
    "line1": "1 48769U 21045C   26168.77320709  .00000285  00000+0  72176-3 0  9994",
    "line2": "2 48769  87.9001 259.0869 0002023  95.7299 264.4062 13.15548880244746"
  },
  {
    "name": "ONEWEB-0237",
    "noradId": "48770",
    "line1": "1 48770U 21045D   26168.76210488  .00000079  00000+0  17534-3 0  9995",
    "line2": "2 48770  87.8999 259.0909 0001767 103.4485 256.6842 13.15546925244462"
  },
  {
    "name": "ONEWEB-0235",
    "noradId": "48771",
    "line1": "1 48771U 21045E   26168.81282021 -.00000081  00000+0 -24964-3 0  9994",
    "line2": "2 48771  87.9012 259.0665 0001671 108.9208 251.2104 13.15548818244461"
  },
  {
    "name": "ONEWEB-0242",
    "noradId": "48772",
    "line1": "1 48772U 21045F   26168.80646897 -.00000098  00000+0 -29358-3 0  9999",
    "line2": "2 48772  87.9014 259.0644 0001775  99.1559 260.9773 13.15547334244502"
  },
  {
    "name": "ONEWEB-0241",
    "noradId": "48773",
    "line1": "1 48773U 21045G   26168.79380830  .00000089  00000+0  20238-3 0  9996",
    "line2": "2 48773  87.9000 259.0854 0001856 113.2031 246.9295 13.15549338244413"
  },
  {
    "name": "ONEWEB-0243",
    "noradId": "48774",
    "line1": "1 48774U 21045H   26168.74943467 -.00000097  00000+0 -29246-3 0  9992",
    "line2": "2 48774  87.9004 259.1066 0001485  95.8061 264.3239 13.15548641244430"
  },
  {
    "name": "ONEWEB-0222",
    "noradId": "48775",
    "line1": "1 48775U 21045J   26168.80885285 -.00000093  00000+0 -28089-3 0  9993",
    "line2": "2 48775  87.9011 259.0625 0001860 106.6759 253.4576 13.15549169244485"
  },
  {
    "name": "ONEWEB-0244",
    "noradId": "48776",
    "line1": "1 48776U 21045K   26168.75894519 -.00000010  00000+0 -61195-4 0  9993",
    "line2": "2 48776  87.9014 259.0669 0001842 102.1381 257.9955 13.15548411245041"
  },
  {
    "name": "ONEWEB-0247",
    "noradId": "48777",
    "line1": "1 48777U 21045L   26168.75577025  .00000032  00000+0  49883-4 0  9996",
    "line2": "2 48777  87.8997 259.0998 0001172 108.8700 251.2558 13.15547327244488"
  },
  {
    "name": "ONEWEB-0245",
    "noradId": "48778",
    "line1": "1 48778U 21045M   26168.75101554 -.00000059  00000+0 -19032-3 0  9990",
    "line2": "2 48778  87.9011 259.0799 0001970 106.3858 253.7489 13.15547936244452"
  },
  {
    "name": "ONEWEB-0229",
    "noradId": "48779",
    "line1": "1 48779U 21045N   26168.74626575 -.00000093  00000+0 -28223-3 0  9995",
    "line2": "2 48779  87.9009 259.0788 0001859  99.4066 260.7275 13.15548384244489"
  },
  {
    "name": "ONEWEB-0228",
    "noradId": "48780",
    "line1": "1 48780U 21045P   26168.77967080  .00000153  00000+0  37224-3 0  9995",
    "line2": "2 48780  87.9017 259.0648 0001903 102.1667 257.9676 13.15546877244404"
  },
  {
    "name": "ONEWEB-0232",
    "noradId": "48781",
    "line1": "1 48781U 21045Q   26168.75417317 -.00000058  00000+0 -18717-3 0  9999",
    "line2": "2 48781  87.9012 259.0709 0002012 103.1882 256.9473 13.15550195244727"
  },
  {
    "name": "ONEWEB-0231",
    "noradId": "48782",
    "line1": "1 48782U 21045R   26168.80805853 -.00000065  00000+0 -20638-3 0  9995",
    "line2": "2 48782  87.9009 259.0732 0001810 105.9904 254.1426 13.15548615244429"
  },
  {
    "name": "ONEWEB-0234",
    "noradId": "48783",
    "line1": "1 48783U 21045S   26168.76989660  .00000130  00000+0  31142-3 0  9993",
    "line2": "2 48783  87.9009 259.0623 0002734 108.8689 251.2738 13.15549047244555"
  },
  {
    "name": "ONEWEB-0238",
    "noradId": "48784",
    "line1": "1 48784U 21045T   26168.77016557  .00000142  00000+0  34207-3 0  9999",
    "line2": "2 48784  87.9015 259.0569 0002362 106.6990 253.4400 13.15547368244453"
  },
  {
    "name": "ONEWEB-0240",
    "noradId": "48785",
    "line1": "1 48785U 21045U   26168.79142292  .00000043  00000+0  79718-4 0  9995",
    "line2": "2 48785  87.9015 259.0626 0001940 111.0101 249.1237 13.15547599244482"
  },
  {
    "name": "ONEWEB-0246",
    "noradId": "48786",
    "line1": "1 48786U 21045V   26168.78588205  .00000157  00000+0  38177-3 0  9992",
    "line2": "2 48786  87.9013 259.0683 0001859  98.7080 261.4261 13.15549058244352"
  },
  {
    "name": "ONEWEB-0210",
    "noradId": "48787",
    "line1": "1 48787U 21045W   26168.76050733 -.00000181  00000+0 -51420-3 0  9996",
    "line2": "2 48787  87.9015 259.0704 0001124  93.1127 267.0132 13.15550107244395"
  },
  {
    "name": "ONEWEB-0214",
    "noradId": "48788",
    "line1": "1 48788U 21045X   26168.76923913  .00000158  00000+0  38645-3 0  9992",
    "line2": "2 48788  87.9013 259.0655 0001808  91.4602 268.6735 13.15548790244365"
  },
  {
    "name": "ONEWEB-0221",
    "noradId": "48789",
    "line1": "1 48789U 21045Y   26168.77637624  .00000156  00000+0  38011-3 0  9990",
    "line2": "2 48789  87.9016 259.0729 0001821 104.5356 255.5976 13.15547972244451"
  },
  {
    "name": "ONEWEB-0213",
    "noradId": "48790",
    "line1": "1 48790U 21045Z   26168.76527313  .00000121  00000+0  28789-3 0  9997",
    "line2": "2 48790  87.9011 259.0782 0001682 103.4695 256.6623 13.15547289244515"
  },
  {
    "name": "ONEWEB-0212",
    "noradId": "48791",
    "line1": "1 48791U 21045AA  26168.74229769 -.00000111  00000+0 -33002-3 0  9995",
    "line2": "2 48791  87.9012 259.0772 0002043 101.4930 258.6430 13.15550442244500"
  },
  {
    "name": "ONEWEB-0227",
    "noradId": "48792",
    "line1": "1 48792U 21045AB  26168.74151456 -.00000138  00000+0 -40110-3 0  9990",
    "line2": "2 48792  87.9011 259.0780 0001962 103.0473 257.0877 13.15548889244452"
  },
  {
    "name": "ONEWEB-0226",
    "noradId": "48793",
    "line1": "1 48793U 21045AC  26168.73515890 -.00000043  00000+0 -14785-3 0  9990",
    "line2": "2 48793  87.9007 259.0838 0001704 100.0151 260.1172 13.15550841244427"
  },
  {
    "name": "ONEWEB-0224",
    "noradId": "48794",
    "line1": "1 48794U 21045AD  26168.77478167  .00000121  00000+0  28742-3 0  9993",
    "line2": "2 48794  87.9003 259.1101 0002428 121.2163 238.9206 13.15546584244352"
  },
  {
    "name": "ONEWEB-0233",
    "noradId": "48795",
    "line1": "1 48795U 21045AE  26168.77940519  .00000169  00000+0  41589-3 0  9995",
    "line2": "2 48795  87.9001 259.1166 0001806 108.4685 251.6642 13.15548312244376"
  },
  {
    "name": "ONEWEB-0190",
    "noradId": "48796",
    "line1": "1 48796U 21045AF  26168.76685624  .00000094  00000+0  21534-3 0  9993",
    "line2": "2 48796  87.9004 259.0810 0001378 114.0122 246.1153 13.15547308244446"
  }
]